0 SPACEBEE-178
1 56973U 23084AT  24002.84220706  .00019861  00000-0  86696-3 0  9997
2 56973  97.5287 123.0290 0012502 223.3971 136.6281 15.22102172 30939
0 LEMUR 2 NAZIYAH
1 56974U 23084AU  24002.90058366  .00022358  00000-0  99784-3 0  9993
2 56974  97.5212 122.7783 0012822 219.5592 140.4708 15.21315944 30931
0 SPACEBEE-176
1 56975U 23084AV  24002.87459469  .00021480  00000-0  92253-3 0  9998
2 56975  97.5269 123.1119 0012301 221.9113 138.1183 15.22640880 30943
0 SPACEBEE-174
1 56976U 23084AW  24002.86094030  .00021242  00000-0  90728-3 0  9998
2 56976  97.5271 123.1328 0012304 221.5838 138.4464 15.22830801 30941
0 LEMUR 2 AADAM-ALIYAH
1 56977U 23084AX  24002.30722622  .00025978  00000-0  11591-2 0  9993
2 56977  97.5232 122.2438 0013047 223.2109 136.8103 15.21290628 30843
0 SPACEBEE-173
1 56978U 23084AY  24002.85427672  .00021111  00000-0  89991-3 0  9996
2 56978  97.5275 123.1446 0012475 221.1269 138.9028 15.22897602 30944
0 SPACEBEE-172
1 56979U 23084AZ  24002.80079307  .00023047  00000-0  98448-3 0  9997
2 56979  97.5267 123.0541 0012681 222.4801 137.5455 15.22805850 30938
0 SPACEBEE-171
1 56980U 23084BA  24002.25794858  .00026737  00000-0  11368-2 0  9997
2 56980  97.5275 122.5605 0012517 223.5200 136.5050 15.22935126 30858
0 SKYKRAFT-3A
1 56981U 23084BB  24003.12897992  .00019785  00000-0  90005-3 0  9999
2 56981  97.5256 122.8869 0009727 223.0236 137.0239 15.20717776 30959
0 SPACEBEE-169
1 56982U 23084BC  24002.89307724  .00021797  00000-0  93636-3 0  9991
2 56982  97.5257 123.0669 0012763 220.8984 139.1296 15.22624463 30948
0 SPACEBEE-170
1 56983U 23084BD  24002.86093546  .00023530  00000-0  10086-2 0  9997
2 56983  97.5283 123.1502 0012212 218.5857 141.4507 15.22689468 30944
0 SPACEBEE-168
1 56984U 23084BE  24002.89547302  .00026461  00000-0  11010-2 0  9999
2 56984  97.5269 123.2789 0013094 222.1759 137.8471 15.23662164 30953
0 SPACEBEE-175
1 56985U 23084BF  24002.90215857  .00018511  00000-0  79306-3 0  9999
2 56985  97.5285 123.2520 0013419 225.4377 134.5765 15.22744434 30958
0 AYRIS-2
1 56986U 23084BG  24003.07332815  .00013857  00000-0  67386-3 0  9996
2 56986  97.5251 122.6800 0014438 221.2108 138.8037 15.18437318 30936
0 AII-DELTA
1 56987U 23084BH  24003.12962719  .00018346  00000-0  81890-3 0  9999
2 56987  97.5198 123.0507 0013179 211.7892 148.2549 15.21348423 30970
0 AYRIS-1
1 56988U 23084BJ  24003.13569737  .00013856  00000-0  67386-3 0  9999
2 56988  97.5244 122.6908 0015009 218.9117 141.1038 15.18426606 30944
