[{"OBJECT_NAME":"SPACEBEE-178","OBJECT_ID":"2023-084AT","EPOCH":"2024-01-02T20:12:46.689984","MEAN_MOTION":15.22102172,"ECCENTRICITY":0.0012502,"INCLINATION":97.5287,"RA_OF_ASC_NODE":123.029,"ARG_OF_PERICENTER":223.3971,"MEAN_ANOMALY":136.6281,"EPHEMERIS_TYPE":0,"CLASSIFICATION_TYPE":"U","NORAD_CAT_ID":56973,"ELEMENT_SET_NO":999,"REV_AT_EPOCH":3093,"BSTAR":0.00086696,"MEAN_MOTION_DOT":0.00019861,"MEAN_MOTION_DDOT":0},{"OBJECT_NAME":"LEMUR-2-NAZIYAH","OBJECT_ID":"2023-084AU","EPOCH":"2024-01-02T21:36:50.428224","MEAN_MOTION":15.21315944,"ECCENTRICITY":0.0012822,"INCLINATION":97.5212,"RA_OF_ASC_NODE":122.7783,"ARG_OF_PERICENTER":219.5592,"MEAN_ANOMALY":140.4708,"EPHEMERIS_TYPE":0,"CLASSIFICATION_TYPE":"U","NORAD_CAT_ID":56974,"ELEMENT_SET_NO":999,"REV_AT_EPOCH":3093,"BSTAR":0.00099784,"MEAN_MOTION_DOT":0.00022358,"MEAN_MOTION_DDOT":0},{"OBJECT_NAME":"SPACEBEE-176","OBJECT_ID":"2023-084AV","EPOCH":"2024-01-02T20:59:24.981216","MEAN_MOTION":15.2264088,"ECCENTRICITY":0.0012301,"INCLINATION":97.5269,"RA_OF_ASC_NODE":123.1119,"ARG_OF_PERICENTER":221.9113,"MEAN_ANOMALY":138.1183,"EPHEMERIS_TYPE":0,"CLASSIFICATION_TYPE":"U","NORAD_CAT_ID":56975,"ELEMENT_SET_NO":999,"REV_AT_EPOCH":3094,"BSTAR":0.00092253,"MEAN_MOTION_DOT":0.0002148,"MEAN_MOTION_DDOT":0},{"OBJECT_NAME":"SPACEBEE-174","OBJECT_ID":"2023-084AW","EPOCH":"2024-01-02T20:39:45.241920","MEAN_MOTION":15.22830801,"ECCENTRICITY":0.0012304,"INCLINATION":97.5271,"RA_OF_ASC_NODE":123.1328,"ARG_OF_PERICENTER":221.5838,"MEAN_ANOMALY":138.4464,"EPHEMERIS_TYPE":0,"CLASSIFICATION_TYPE":"U","NORAD_CAT_ID":56976,"ELEMENT_SET_NO":999,"REV_AT_EPOCH":3094,"BSTAR":0.00090728,"MEAN_MOTION_DOT":0.00021242,"MEAN_MOTION_DDOT":0},{"OBJECT_NAME":"LEMUR-2-AADAM-ALIYAH","OBJECT_ID":"2023-084AX","EPOCH":"2024-01-02T07:22:24.345408","MEAN_MOTION":15.21290628,"ECCENTRICITY":0.0013047,"INCLINATION":97.5232,"RA_OF_ASC_NODE":122.2438,"ARG_OF_PERICENTER":223.2109,"MEAN_ANOMALY":136.8103,"EPHEMERIS_TYPE":0,"CLASSIFICATION_TYPE":"U","NORAD_CAT_ID":56977,"ELEMENT_SET_NO":999,"REV_AT_EPOCH":3084,"BSTAR":0.0011591,"MEAN_MOTION_DOT":0.00025978,"MEAN_MOTION_DDOT":0},{"OBJECT_NAME":"SPACEBEE-173","OBJECT_ID":"2023-084AY","EPOCH":"2024-01-02T20:30:09.508608","MEAN_MOTION":15.22897602,"ECCENTRICITY":0.0012475,"INCLINATION":97.5275,"RA_OF_ASC_NODE":123.1446,"ARG_OF_PERICENTER":221.1269,"MEAN_ANOMALY":138.9028,"EPHEMERIS_TYPE":0,"CLASSIFICATION_TYPE":"U","NORAD_CAT_ID":56978,"ELEMENT_SET_NO":999,"REV_AT_EPOCH":3094,"BSTAR":0.00089991,"MEAN_MOTION_DOT":0.00021111,"MEAN_MOTION_DDOT":0},{"OBJECT_NAME":"SPACEBEE-172","OBJECT_ID":"2023-084AZ","EPOCH":"2024-01-02T19:13:08.521248","MEAN_MOTION":15.2280585,"ECCENTRICITY":0.0012681,"INCLINATION":97.5267,"RA_OF_ASC_NODE":123.0541,"ARG_OF_PERICENTER":222.4801,"MEAN_ANOMALY":137.5455,"EPHEMERIS_TYPE":0,"CLASSIFICATION_TYPE":"U","NORAD_CAT_ID":56979,"ELEMENT_SET_NO":999,"REV_AT_EPOCH":3093,"BSTAR":0.00098448,"MEAN_MOTION_DOT":0.00023047,"MEAN_MOTION_DDOT":0},{"OBJECT_NAME":"SPACEBEE-171","OBJECT_ID":"2023-084BA","EPOCH":"2024-01-02T06:11:26.757312","MEAN_MOTION":15.22935126,"ECCENTRICITY":0.0012517,"INCLINATION":97.5275,"RA_OF_ASC_NODE":122.5605,"ARG_OF_PERICENTER":223.52,"MEAN_ANOMALY":136.505,"EPHEMERIS_TYPE":0,"CLASSIFICATION_TYPE":"U","NORAD_CAT_ID":56980,"ELEMENT_SET_NO":999,"REV_AT_EPOCH":3085,"BSTAR":0.0011368,"MEAN_MOTION_DOT":0.00026737,"MEAN_MOTION_DDOT":0},{"OBJECT_NAME":"SKYKRAFT-3A","OBJECT_ID":"2023-084BB","EPOCH":"2024-01-03T03:05:43.865088","MEAN_MOTION":15.20717776,"ECCENTRICITY":0.0009727,"INCLINATION":97.5256,"RA_OF_ASC_NODE":122.8869,"ARG_OF_PERICENTER":223.0236,"MEAN_ANOMALY":137.0239,"EPHEMERIS_TYPE":0,"CLASSIFICATION_TYPE":"U","NORAD_CAT_ID":56981,"ELEMENT_SET_NO":999,"REV_AT_EPOCH":3095,"BSTAR":0.00090005,"MEAN_MOTION_DOT":0.00019785,"MEAN_MOTION_DDOT":0},{"OBJECT_NAME":"SPACEBEE-169","OBJECT_ID":"2023-084BC","EPOCH":"2024-01-02T21:26:01.873536","MEAN_MOTION":15.22624463,"ECCENTRICITY":0.0012763,"INCLINATION":97.5257,"RA_OF_ASC_NODE":123.0669,"ARG_OF_PERICENTER":220.8984,"MEAN_ANOMALY":139.1296,"EPHEMERIS_TYPE":0,"CLASSIFICATION_TYPE":"U","NORAD_CAT_ID":56982,"ELEMENT_SET_NO":999,"REV_AT_EPOCH":3094,"BSTAR":0.00093636,"MEAN_MOTION_DOT":0.00021797,"MEAN_MOTION_DDOT":0},{"OBJECT_NAME":"SPACEBEE-170","OBJECT_ID":"2023-084BD","EPOCH":"2024-01-02T20:39:44.823744","MEAN_MOTION":15.22689468,"ECCENTRICITY":0.0012212,"INCLINATION":97.5283,"RA_OF_ASC_NODE":123.1502,"ARG_OF_PERICENTER":218.5857,"MEAN_ANOMALY":141.4507,"EPHEMERIS_TYPE":0,"CLASSIFICATION_TYPE":"U","NORAD_CAT_ID":56983,"ELEMENT_SET_NO":999,"REV_AT_EPOCH":3094,"BSTAR":0.0010086,"MEAN_MOTION_DOT":0.0002353,"MEAN_MOTION_DDOT":0},{"OBJECT_NAME":"SPACEBEE-168","OBJECT_ID":"2023-084BE","EPOCH":"2024-01-02T21:29:28.868928","MEAN_MOTION":15.23662164,"ECCENTRICITY":0.0013094,"INCLINATION":97.5269,"RA_OF_ASC_NODE":123.2789,"ARG_OF_PERICENTER":222.1759,"MEAN_ANOMALY":137.8471,"EPHEMERIS_TYPE":0,"CLASSIFICATION_TYPE":"U","NORAD_CAT_ID":56984,"ELEMENT_SET_NO":999,"REV_AT_EPOCH":3095,"BSTAR":0.001101,"MEAN_MOTION_DOT":0.00026461,"MEAN_MOTION_DDOT":0},{"OBJECT_NAME":"SPACEBEE-175","OBJECT_ID":"2023-084BF","EPOCH":"2024-01-02T21:39:06.500448","MEAN_MOTION":15.22744434,"ECCENTRICITY":0.0013419,"INCLINATION":97.5285,"RA_OF_ASC_NODE":123.252,"ARG_OF_PERICENTER":225.4377,"MEAN_ANOMALY":134.5765,"EPHEMERIS_TYPE":0,"CLASSIFICATION_TYPE":"U","NORAD_CAT_ID":56985,"ELEMENT_SET_NO":999,"REV_AT_EPOCH":3095,"BSTAR":0.00079306,"MEAN_MOTION_DOT":0.00018511,"MEAN_MOTION_DDOT":0},{"OBJECT_NAME":"AYRIS-2","OBJECT_ID":"2023-084BG","EPOCH":"2024-01-03T01:45:35.552160","MEAN_MOTION":15.18437318,"ECCENTRICITY":0.0014438,"INCLINATION":97.5251,"RA_OF_ASC_NODE":122.68,"ARG_OF_PERICENTER":221.2108,"MEAN_ANOMALY":138.8037,"EPHEMERIS_TYPE":0,"CLASSIFICATION_TYPE":"U","NORAD_CAT_ID":56986,"ELEMENT_SET_NO":999,"REV_AT_EPOCH":3093,"BSTAR":0.00067386,"MEAN_MOTION_DOT":0.00013857,"MEAN_MOTION_DDOT":0},{"OBJECT_NAME":"AII-DELTA","OBJECT_ID":"2023-084BH","EPOCH":"2024-01-03T03:06:39.789216","MEAN_MOTION":15.21348423,"ECCENTRICITY":0.0013179,"INCLINATION":97.5198,"RA_OF_ASC_NODE":123.0507,"ARG_OF_PERICENTER":211.7892,"MEAN_ANOMALY":148.2549,"EPHEMERIS_TYPE":0,"CLASSIFICATION_TYPE":"U","NORAD_CAT_ID":56987,"ELEMENT_SET_NO":999,"REV_AT_EPOCH":3097,"BSTAR":0.0008189,"MEAN_MOTION_DOT":0.00018346,"MEAN_MOTION_DDOT":0},{"OBJECT_NAME":"AYRIS-1","OBJECT_ID":"2023-084BJ","EPOCH":"2024-01-03T03:15:24.252768","MEAN_MOTION":15.18426606,"ECCENTRICITY":0.0015009,"INCLINATION":97.5244,"RA_OF_ASC_NODE":122.6908,"ARG_OF_PERICENTER":218.9117,"MEAN_ANOMALY":141.1038,"EPHEMERIS_TYPE":0,"CLASSIFICATION_TYPE":"U","NORAD_CAT_ID":56988,"ELEMENT_SET_NO":999,"REV_AT_EPOCH":3094,"BSTAR":0.00067386,"MEAN_MOTION_DOT":0.00013856,"MEAN_MOTION_DDOT":0}]
